SatCatId,ObjectName,LaunchYear,OrbitalPeriod,LaunchMass,StatusCode,Inclination,Status,UcsData,OrbitClassEstimated,LaunchSiteCountry,Owner,UseType,Purpose,LaunchVehicleClass,TLE1,TLE2,MeanMotion,Eccentricity,OrbitClass
57199,SITRO-AIS 10 (BURDAEV),2023,95.2,-1.0,+,97.61,Active,0,LEO,Russia,Russia/USSR,Unknown,Unknown,Unknown,1 57199U 23091AK  24239.91590944  .00015057  00000+0  86361-3 0  9991,2 57199  97.6073 292.7940 0011377 221.7600 138.2763 15.12608548 64241,15.12608548,0.0011377,LEO
57200,OBJECT AL,2023,95.15,-1.0,+,97.61,Active,0,LEO,Russia,Russia/USSR,Unknown,Unknown,Unknown,1 57200U 23091AL  24239.88675156  .00017276  00000+0  96625-3 0  9998,2 57200  97.6099 293.0897 0011873 214.7661 145.2796 15.13477938 64250,15.13477938,0.0011873,LEO
57201,SITRO-AIS 9 (SHCHUKIN),2023,95.2,-1.0,+,97.61,Active,0,LEO,Russia,Russia/USSR,Unknown,Unknown,Unknown,1 57201U 23091AM  24239.91519439  .00015530  00000+0  89123-3 0  9990,2 57201  97.6069 292.7674 0011354 221.7735 138.2630 15.12583258 64241,15.12583258,0.0011354,LEO
57202,CSTP 1.1 (STC 1.1),2023,95.45,-1.0,+,97.61,Active,0,LEO,Russia,Russia/USSR,Unknown,Unknown,Unknown,1 57202U 23091AN  24239.89692073  .00009449  00000+0  60525-3 0  9991,2 57202  97.6117 291.7798 0010859 221.6091 138.4312 15.08714643 64164,15.08714643,0.0010859,LEO
57203,UTMN 2 (RS27S),2023,95.25,-1.0,+,97.61,Active,0,LEO,Russia,Russia/USSR,Unknown,Unknown,Unknown,1 57203U 23091AP  24239.93157087  .00012761  00000+0  74894-3 0  9993,2 57203  97.6080 292.6416 0011897 216.5940 143.4478 15.11815928 64239,15.11815928,0.0011897,LEO
57204,SITRO-AIS 12 (SMIRENNIY),2023,95.19,-1.0,+,97.61,Active,0,LEO,Russia,Russia/USSR,Unknown,Unknown,Unknown,1 57204U 23091AQ  24239.93481415  .00014993  00000+0  85584-3 0  9996,2 57204  97.6081 292.9467 0011308 214.7586 145.2907 15.12782293 64251,15.12782293,0.0011308,LEO
57205,ARCCUBE 1 (RS25S),2023,94.9,-1.0,+,97.6,Active,0,LEO,Russia,Russia/USSR,Unknown,Unknown,Unknown,1 57205U 23091AR  24239.89654631  .00028638  00000+0  14276-2 0  9994,2 57205  97.6020 293.8030 0010127 219.4565 140.5932 15.17459904 64327,15.17459904,0.0010127,LEO
57206,OBJECT AS,2023,95.06,-1.0,+,97.6,Active,0,LEO,Russia,Russia/USSR,Unknown,Unknown,Unknown,1 57206U 23091AS  24239.89850968  .00019757  00000+0  10643-2 0  9992,2 57206  97.6046 293.2653 0010430 221.5276 138.5164 15.14801220 64289,15.1480122,0.001043,LEO
57208,SITRO-AIS 11 (SHEFFER),2023,95.18,-1.0,+,97.61,Active,0,LEO,Russia,Russia/USSR,Unknown,Unknown,Unknown,1 57208U 23091AU  24239.91619362  .00015490  00000+0  88137-3 0  9992,2 57208  97.6075 292.9587 0011257 215.7808 144.2670 15.12891661 64258,15.12891661,0.0011257,LEO
57213,H2SAT (HEINRICH HERTZ),2023,1436.12,-1.0,+,0.02,Active,0,GSO,French Guiana,Germany,Unknown,Unknown,Unknown,1 57213U 23093A   24239.91868712 -.00000011  00000+0  00000+0 0  9998,2 57213   0.0171 102.6772 0000871 144.6512  59.5451  1.00271879  4304,1.00271879,8.71e-05,GEO
57214,SYRACUSE 4B,2023,1436.14,-1.0,+,0.01,Active,0,GSO,French Guiana,France,Unknown,Unknown,Unknown,1 57214U 23093B   24239.91729703 -.00000066  00000+0  00000+0 0  9995,2 57214   0.0093 126.8983 0000477 123.5789  48.7985  1.00271491   346,1.00271491,4.77e-05,GEO
57217,KUZGTU 1 (RS47S),2023,95.34,-1.0,+,97.61,Active,0,LEO,Russia,Russia/USSR,Unknown,Unknown,Unknown,1 57217U 23091AV  24239.89261722  .00014064  00000+0  85507-3 0  9996,2 57217  97.6069 291.7072 0015868 231.2841 128.6971 15.10464102 64174,15.10464102,0.0015868,LEO
57218,STARLINK-5525,2023,95.84,-1.0,+,43.0,Active,0,LEO,USA,USA,Unknown,Unknown,Unknown,1 57218U 23094A   24239.60265553  .00000591  00000+0  58830-4 0  9995,2 57218  43.0018 194.0931 0001072 273.4809  86.5911 15.02536411 63042,15.02536411,0.0001072,LEO
57219,STARLINK-5520,2023,95.84,-1.0,+,43.0,Active,0,LEO,USA,USA,Unknown,Unknown,Unknown,1 57219U 23094B   24239.59932266  .00000628  00000+0  61575-4 0  9997,2 57219  43.0018 194.0693 0001202 268.2852  91.7853 15.02538663 63047,15.02538663,0.0001202,LEO
57220,STARLINK-5880,2023,95.84,-1.0,+,43.0,Active,0,LEO,USA,USA,Unknown,Unknown,Unknown,1 57220U 23094C   24239.58378316  .00001809  00000+0  14893-3 0  9990,2 57220  43.0024 193.9495 0001323 269.5952  90.4739 15.02538865 63046,15.02538865,0.0001323,LEO
57221,STARLINK-5875,2023,95.84,-1.0,+,43.0,Active,0,LEO,USA,USA,Unknown,Unknown,Unknown,1 57221U 23094D   24239.59710200 -.00000710  00000+0 -37455-4 0  9996,2 57221  43.0021 194.0519 0001425 262.8597  97.2084 15.02542958 63043,15.02542958,0.0001425,LEO
57222,STARLINK-5870,2023,95.84,-1.0,+,43.0,Active,0,LEO,USA,USA,Unknown,Unknown,Unknown,1 57222U 23094E   24239.59045229  .00000649  00000+0  63131-4 0  9998,2 57222  43.0012 194.0006 0001006 272.2089  87.8638 15.02518129 63493,15.02518129,0.0001006,LEO
57223,STARLINK-5519,2023,95.84,-1.0,+,43.0,Active,0,LEO,USA,USA,Unknown,Unknown,Unknown,1 57223U 23094F   24239.59377605  .00000676  00000+0  65125-4 0  9990,2 57223  43.0002 194.0260 0001091 273.4144  86.6574 15.02536387 62866,15.02536387,0.0001091,LEO
57224,STARLINK-5983,2023,95.84,-1.0,+,43.0,Active,0,LEO,USA,USA,Unknown,Unknown,Unknown,1 57224U 23094G   24239.58711329  .00002544  00000+0  20332-3 0  9991,2 57224  43.0028 193.9755 0001306 270.2477  89.8216 15.02544425 62865,15.02544425,0.0001306,LEO
57225,STARLINK-6294,2023,95.84,-1.0,+,43.0,Active,0,LEO,USA,USA,Unknown,Unknown,Unknown,1 57225U 23094H   24239.59600020  .00000191  00000+0  29229-4 0  9999,2 57225  43.0013 194.0396 0000859 266.2284  93.8460 15.02533738 62867,15.02533738,8.59e-05,LEO
57226,STARLINK-6350,2023,95.84,-1.0,+,43.0,Active,0,LEO,USA,USA,Unknown,Unknown,Unknown,1 57226U 23094J   24239.57601737  .00000131  00000+0  24784-4 0  9999,2 57226  43.0044 193.8862 0001249 262.9552  97.1148 15.02533606 62866,15.02533606,0.0001249,LEO
57227,STARLINK-5996,2023,95.84,-1.0,+,43.0,Active,0,LEO,USA,USA,Unknown,Unknown,Unknown,1 57227U 23094K   24239.58045547  .00000294  00000+0  36844-4 0  9992,2 57227  43.0026 193.9226 0001273 267.3982  92.6715 15.02535555 63041,15.02535555,0.0001273,LEO
57228,STARLINK-6230,2023,95.84,-1.0,+,43.0,Active,0,LEO,USA,USA,Unknown,Unknown,Unknown,1 57228U 23094L   24239.57268901  .00001269  00000+0  10898-3 0  9996,2 57228  43.0005 193.8659 0001067 267.7773  92.2947 15.02534521 62865,15.02534521,0.0001067,LEO
57229,STARLINK-6233,2023,95.84,-1.0,+,43.0,Active,0,LEO,USA,USA,Unknown,Unknown,Unknown,1 57229U 23094M   24239.57934672  .00000899  00000+0  81603-4 0  9993,2 57229  43.0046 193.9145 0001075 261.3269  98.7451 15.02535801 62864,15.02535801,0.0001075,LEO
57230,STARLINK-6250,2023,95.84,-1.0,+,43.0,Active,0,LEO,USA,USA,Unknown,Unknown,Unknown,1 57230U 23094N   24239.56713838  .00001086  00000+0  95435-4 0  9990,2 57230  43.0039 193.8227 0001133 266.3026  93.7687 15.02534649 62864,15.02534649,0.0001133,LEO
57231,STARLINK-5840,2023,95.84,-1.0,+,43.0,Active,0,LEO,USA,USA,Unknown,Unknown,Unknown,1 57231U 23094P   24239.34439592  .00000706  00000+0  67335-4 0  9995,2 57231  43.0019 194.7296 0001142 271.8737  88.1975 15.02537763 62834,15.02537763,0.0001142,LEO
57232,STARLINK-5872,2023,95.84,-1.0,+,43.0,Active,0,LEO,USA,USA,Unknown,Unknown,Unknown,1 57232U 23094Q   24239.60919835  .00000700  00000+0  66863-4 0  9997,2 57232  43.0020 193.2730 0001074 268.0852  91.9867 15.02537009 63537,15.02537009,0.0001074,LEO
57233,STARLINK-5866,2023,95.84,-1.0,+,43.0,Active,0,LEO,USA,USA,Unknown,Unknown,Unknown,1 57233U 23094R   24239.35105638 -.00000092  00000+0  82459-5 0  9993,2 57233  43.0026 194.7812 0001219 269.4948  90.5755 15.02533638 62830,15.02533638,0.0001219,LEO
57234,STARLINK-6368,2023,95.84,-1.0,+,43.0,Active,0,LEO,USA,USA,Unknown,Unknown,Unknown,1 57234U 23094S   24239.87288914  .00006253  00000+0  47754-3 0  9991,2 57234  43.0007 191.8164 0001293 279.4749  80.5947 15.02534244 62915,15.02534244,0.0001293,LEO
57235,STARLINK-6360,2023,95.84,-1.0,+,43.0,Active,0,LEO,USA,USA,Unknown,Unknown,Unknown,1 57235U 23094T   24239.35327643  .00000571  00000+0  57355-4 0  9994,2 57235  43.0021 194.8018 0001167 280.7121  79.3590 15.02533422 62830,15.02533422,0.0001167,LEO
57236,STARLINK-6315,2023,95.84,-1.0,+,43.0,Active,0,LEO,USA,USA,Unknown,Unknown,Unknown,1 57236U 23094U   24239.54753951  .00004043  00000+0  31434-3 0  9998,2 57236  43.0015 181.5338 0000893 260.4713  99.6028 15.02521063 63008,15.02521063,8.93e-05,LEO
57237,STARLINK-6365,2023,95.84,-1.0,+,43.0,Active,0,LEO,USA,USA,Unknown,Unknown,Unknown,1 57237U 23094V   24239.34772612 -.00000142  00000+0  45292-5 0  9998,2 57237  43.0030 194.7571 0000909 267.6965  92.3773 15.02534034 62836,15.02534034,9.09e-05,LEO
57238,STARLINK-6334,2023,95.84,-1.0,+,43.0,Active,0,LEO,USA,USA,Unknown,Unknown,Unknown,1 57238U 23094W   24239.53976358  .00000484  00000+0  50931-4 0  9996,2 57238  43.0019 181.4732 0001387 269.6688  90.3995 15.02535932 63003,15.02535932,0.0001387,LEO
57239,STARLINK-6330,2023,95.84,-1.0,+,43.0,Active,0,LEO,USA,USA,Unknown,Unknown,Unknown,1 57239U 23094X   24239.60586580 -.00000186  00000+0  12858-5 0  9996,2 57239  43.0019 193.2534 0001130 263.2612  96.8101 15.02536583 62875,15.02536583,0.000113,LEO
57240,STARLINK-6351,2023,95.84,-1.0,+,43.0,Active,0,LEO,USA,USA,Unknown,Unknown,Unknown,1 57240U 23094Y   24239.53088479  .00000900  00000+0  81635-4 0  9995,2 57240  43.0027 181.4070 0000897 295.5004  64.5746 15.02540778 63185,15.02540778,8.97e-05,LEO
57241,STARLINK-6349,2023,95.84,-1.0,+,43.0,Active,0,LEO,USA,USA,Unknown,Unknown,Unknown,1 57241U 23094Z   24239.54420072  .00001348  00000+0  11481-3 0  9994,2 57241  43.0025 181.5059 0001358 276.9402  83.1285 15.02538838 63000,15.02538838,0.0001358,LEO
57242,STARLINK-6306,2023,95.84,-1.0,+,43.0,Active,0,LEO,USA,USA,Unknown,Unknown,Unknown,1 57242U 23094AA  24239.54087482  .00001048  00000+0  92658-4 0  9992,2 57242  43.0035 181.4824 0001239 275.5281  84.5420 15.02536055 63004,15.02536055,0.0001239,LEO
